{"type": "FeatureCollection", "features": [{"type": "Feature", "properties": {"nombre": "Cant\u00f3n Loja", "codigo": "1101"}, "geometry": {"type": "Polygon", "coordinates": [[[-79.2714255473333, -4.473773120510004], [-79.2774324169003, -4.47400261666518], [-79.28030308858949, -4.4731459567388745], [-79.28184599341664, -4.473943910452239], [-79.28375749023103, -4.476159121573185], [-79.28627163651878, -4.477562273363389], [-79.28757165477447, -4.478190064710128], [-79.28984614393993, -4.478092509491087], [-79.29094129955273, -4.478717138489087], [-79.29142087367482, -4.47908916756955], [-79.29206511792154, -4.481296754906148], [-79.29505056991809, -4.487894904573742], [-79.29650578559023, -4.492634117707595], [-79.29902459691262, -4.4933285178217455], [-79.30133220962486, -4.494470233461333], [-79.30352332023493, -4.494626791369282], [-79.30280940410681, -4.498862142492619], [-79.30332191096842, -4.4999492427799614], [-79.30460749273077, -4.500720259200271], [-79.3073811979142, -4.501279407272159], [-79.3092085375975, -4.50283405620498], [-79.31049451437809, -4.503439978439872], [-79.31231299410783, -4.505741091632291], [-79.31304565374076, -4.507479816093905], [-79.31372404486903, -4.507940769636757], [-79.31534804690874, -4.51033502743027], [-79.31626974707765, -4.509799503534897], [-79.31775679753177, -4.507989362044309], [-79.31966801198168, -4.507922008331805], [-79.32049540161233, -4.508907282244254], [-79.3226670508357, -4.509008605093998], [-79.32399139135372, -4.508539010028694], [-79.32399140092187, -4.505231914967262], [-79.32260936532259, -4.504860995402297], [-79.3204778871455, -4.50565929578527], [-79.31692211695716, -4.505642395974187], [-79.31562338844681, -4.504510604957653], [-79.31272807318891, -4.500336349140861], [-79.31209861487194, -4.500053454409965], [-79.31052813963217, -4.49754691027646], [-79.30998874954098, -4.49594692962], [-79.3102569998577, -4.4954753819512], [-79.30966589620459, -4.4949440778214145], [-79.30942174184051, -4.49371045560852], [-79.30972456070066, -4.490789805812181], [-79.31019032823465, -4.490391776170567], [-79.30980048107092, -4.490207311710277], [-79.31021988089084, -4.488749596210705], [-79.30989302515997, -4.487814913748419], [-79.31020260810733, -4.487464389739437], [-79.30975387729022, -4.486845508676916], [-79.31006110076694, -4.486449942139981], [-79.3096581928311, -4.485185843881055], [-79.30960551139584, -4.481968645300061], [-79.30972985307821, -4.478324359171106], [-79.31077543497874, -4.475789850799672], [-79.31021585592413, -4.474676002905233], [-79.31041067379357, -4.473302626156441], [-79.30981173003327, -4.472514080310636], [-79.30973424599001, -4.471244517185033], [-79.30895525192602, -4.470717659035587], [-79.30904424287415, -4.469334947877418], [-79.30828754291387, -4.468730267176334], [-79.3080033250755, -4.467538069197051], [-79.30669475266333, -4.46679816094028], [-79.3060935171885, -4.467012104702242], [-79.30592745692563, -4.466657618043652], [-79.30513590569485, -4.4666988542254495], [-79.30421336191999, -4.465648768072551], [-79.3034885718264, -4.465685371841326], [-79.30330716490042, -4.46521114714662], [-79.30364149927759, -4.4649532510440935], [-79.30384238971097, -4.463173976547532], [-79.3055961525194, -4.4614362278110695], [-79.30698009566905, -4.4608747717466795], [-79.30908474989825, -4.461432074021508], [-79.31020873334924, -4.460920734901325], [-79.31100021280112, -4.460074143883235], [-79.31212148294564, -4.46074999977308], [-79.31272086671305, -4.4607183600554725], [-79.31334961055285, -4.460356609670517], [-79.31360342187965, -4.45882114530806], [-79.31428473918123, -4.458611683000779], [-79.31448289530029, -4.457753808491761], [-79.31575250806539, -4.456978683438698], [-79.31572448676786, -4.453645472180082], [-79.31483159431517, -4.453686921611537], [-79.31374114431243, -4.452884747760612], [-79.3121257504764, -4.452473747015109], [-79.30915146941848, -4.451012545264797], [-79.30809620625257, -4.450111219659263], [-79.309768105019, -4.445354544460357], [-79.30928188812537, -4.441366399886807], [-79.31084511408234, -4.436374247042294], [-79.3109881126674, -4.431604435418147], [-79.31142892765341, -4.4299267017369095], [-79.31111591806709, -4.428454067803862], [-79.31119576673231, -4.425548544009379], [-79.31163395392446, -4.423623204213091], [-79.31241102965717, -4.423192886097421], [-79.31445474680129, -4.419059414835095], [-79.313653054853, -4.416222714022548], [-79.31428007208375, -4.414983030475839], [-79.31458225669058, -4.412888180657854], [-79.31593334590572, -4.40857986427918], [-79.31580922206982, -4.406325561191644], [-79.31700885442575, -4.405438160128395], [-79.31772281967602, -4.404258785481632], [-79.31791456610483, -4.400990251894659], [-79.3176100824465, -4.400066414257469], [-79.31673016552244, -4.399414490751303], [-79.31458067418208, -4.396159646212463], [-79.31398745833192, -4.394477246333124], [-79.31395355557922, -4.392004516909611], [-79.31215425465963, -4.388462768286349], [-79.31271473330702, -4.386958631384346], [-79.31385099584655, -4.38652859965904], [-79.31236639300444, -4.385674592163366], [-79.31103987540682, -4.380409995668973], [-79.30957899636535, -4.378474026828768], [-79.31200228007366, -4.375685807348613], [-79.31207886057075, -4.374525333883905], [-79.3108325659649, -4.373370755473993], [-79.31147829210987, -4.372186650029284], [-79.3123383528102, -4.371734126116112], [-79.31279833169725, -4.370694382260068], [-79.3137649230862, -4.370143868271849], [-79.31402136861327, -4.369359139462851], [-79.31489837181981, -4.368819778318187], [-79.31513480469143, -4.367843778792907], [-79.31725137180513, -4.366213480481122], [-79.31352603338367, -4.362660700674893], [-79.31432191999836, -4.360388665111072], [-79.31404554765388, -4.359751033218304], [-79.31476365537402, -4.358388861439119], [-79.314853023561, -4.354415029330044], [-79.31701050550724, -4.3536172126750134], [-79.31790101481604, -4.3525819623665125], [-79.31931893118764, -4.3523975406110305], [-79.32066379332774, -4.3513628555220745], [-79.32038996039184, -4.352593009291446], [-79.32177948095115, -4.353404349149181], [-79.32139283024422, -4.353526954366415], [-79.32155266185563, -4.354806299506993], [-79.3223035687363, -4.354249702807065], [-79.3231176327591, -4.354256376488115], [-79.3252590826907, -4.3525388212092055], [-79.32565632801457, -4.351341205313868], [-79.32617214247585, -4.351279563761019], [-79.32608040276659, -4.350772701243219], [-79.32743513789129, -4.349769188737154], [-79.32782676504752, -4.348808742263703], [-79.33025682640385, -4.348503122454192], [-79.32765323649137, -4.34792402692086], [-79.32788658038557, -4.347110906109654], [-79.32858470776702, -4.34641937404022], [-79.33119842569585, -4.345354596621365], [-79.3316973200698, -4.344263195593793], [-79.3313453496873, -4.34283442270889], [-79.33178363428433, -4.340068944756246], [-79.331577538048, -4.338737813841686], [-79.33051808509637, -4.338003412048757], [-79.32978431623447, -4.336158736709603], [-79.32937514584117, -4.3361947128101015], [-79.32899324729478, -4.33538884715401], [-79.32863060303926, -4.33538504019132], [-79.32803904611504, -4.33395410392516], [-79.32659333809667, -4.332583057607548], [-79.32610377681517, -4.331584116402401], [-79.32354000750621, -4.330047978881352], [-79.32341286956475, -4.329036637224601], [-79.32274229584243, -4.328025704515057], [-79.32325863572265, -4.326203823538258], [-79.32267337949602, -4.324358569470411], [-79.32207731559778, -4.32417660002453], [-79.32189924956381, -4.323210785000693], [-79.3205620194005, -4.3220760531801306], [-79.32223659339155, -4.321448114774191], [-79.32347880564235, -4.321687735970538], [-79.3254978273667, -4.31919574360556], [-79.32740487307373, -4.31885254808921], [-79.32833004212127, -4.316280606142806], [-79.32912396050476, -4.316122169995936], [-79.32924009210289, -4.315332859696966], [-79.32998099831627, -4.314619574966686], [-79.33002416424937, -4.313844460076111], [-79.33051741022047, -4.3132483457452375], [-79.3302807626234, -4.312772202379838], [-79.33070506421848, -4.312449334948812], [-79.3306286270902, -4.311433736188284], [-79.3301498822402, -4.310628760659919], [-79.32968568462344, -4.310584273473129], [-79.32913480774855, -4.308976413560481], [-79.32956279549427, -4.307373579090358], [-79.32937554941537, -4.3066764342669694], [-79.33030958771023, -4.305595585307902], [-79.33032774925155, -4.304042811067116], [-79.33085047195301, -4.303697027587907], [-79.33110776873703, -4.302654406587098], [-79.3301134841056, -4.300868282345441], [-79.32868853087159, -4.300500517413328], [-79.32786608033575, -4.299487826906448], [-79.32715538607064, -4.299689638723525], [-79.32606153715605, -4.2993844571885536], [-79.32606640854735, -4.29775302744123], [-79.32649853163154, -4.2971712759773695], [-79.32609508701105, -4.296377234763258], [-79.32510027415242, -4.295860793789289], [-79.3241036898533, -4.293390137234334], [-79.32444615194063, -4.292256428997235], [-79.32550314511829, -4.290905126198592], [-79.32490963788254, -4.288796582310231], [-79.32507614632397, -4.2883427282245705], [-79.3259619719854, -4.287773314282321], [-79.3262448989805, -4.286908954597851], [-79.32738268312643, -4.285599855540957], [-79.32727997681816, -4.285162391250855], [-79.32812728509222, -4.284328621907836], [-79.32998144001411, -4.284098799791133], [-79.33072958783445, -4.283527749322099], [-79.33085684070319, -4.28177686315577], [-79.330396645078, -4.280435599955139], [-79.33071573556647, -4.278253382441719], [-79.33144433895143, -4.276570791469736], [-79.33079164564843, -4.275878922236147], [-79.33065473222811, -4.2751661212678895], [-79.3300681172033, -4.274981685914751], [-79.32815452108726, -4.272904621737697], [-79.3280817396166, -4.271570574260926], [-79.32829369559812, -4.270763525278134], [-79.32926656768548, -4.269550432593622], [-79.33026218327734, -4.269391100114774], [-79.33023677978053, -4.268905101844276], [-79.33064325317649, -4.268739459689144], [-79.33095920340304, -4.265795778372691], [-79.33153537399797, -4.265516377158705], [-79.33093100293041, -4.265279627258134], [-79.33083274007448, -4.264097933328554], [-79.33130580105922, -4.263764844448204], [-79.33190840706266, -4.261295152587856], [-79.33258272122893, -4.260925519654422], [-79.33231100359328, -4.260624006708354], [-79.33263858959674, -4.259551792433997], [-79.33429337462115, -4.2588547294301895], [-79.33482818981211, -4.257521755536165], [-79.33645679973743, -4.25647060901854], [-79.33680714862253, -4.255801428640376], [-79.3368180153506, -4.254291219165458], [-79.33801842266956, -4.253757863848898], [-79.3382059687777, -4.252542808634763], [-79.33862458203717, -4.252046043169768], [-79.3381398492652, -4.251367401672247], [-79.33805456988397, -4.249790468372067], [-79.33874127246033, -4.248526243740868], [-79.33860721424902, -4.247690924017693], [-79.33924442620233, -4.247278371419275], [-79.33927991958276, -4.246283109450869], [-79.33991950310777, -4.245875345468351], [-79.34100516172491, -4.241927431106363], [-79.34098529473434, -4.2408505231851885], [-79.34030385765209, -4.239820820785323], [-79.34033287947607, -4.239206259543785], [-79.33872422158866, -4.237733735757642], [-79.3373711691238, -4.236949479684126], [-79.33654377116031, -4.236897479239912], [-79.33467423837462, -4.235532992797102], [-79.33399893413328, -4.234464186573155], [-79.33271766881089, -4.2334163030131275], [-79.33245014740099, -4.232058129556942], [-79.33171129758969, -4.231066827997831], [-79.33167852898985, -4.230208639847792], [-79.3312489294234, -4.230043056366979], [-79.33061211970377, -4.228706446793748], [-79.32921112054244, -4.2271604445177475], [-79.32843757869863, -4.226705637532587], [-79.32789883073968, -4.225341760459345], [-79.32790386316638, -4.223378666867535], [-79.32957567741697, -4.221887044486031], [-79.33039128109382, -4.220189107525879], [-79.32969929085807, -4.219482748162572], [-79.32998146323334, -4.216501643387204], [-79.32904867631537, -4.214726697050773], [-79.3287599653837, -4.212658843315045], [-79.32930471429793, -4.2115007795105015], [-79.32930574646664, -4.210503090819892], [-79.32843689513687, -4.207661971076705], [-79.3278928006715, -4.207154044834827], [-79.3276968891991, -4.204533539984283], [-79.32546078428737, -4.2022599230898505], [-79.32583713469177, -4.2016526870096955], [-79.32753553913614, -4.201159247334576], [-79.3277666400132, -4.200068705171495], [-79.32712030374532, -4.1988878786649995], [-79.32876614039763, -4.196384952909565], [-79.32841113943532, -4.19508863298807], [-79.32638803412155, -4.193079582966543], [-79.32559334444959, -4.189950360297022], [-79.32462154333133, -4.18814419642902], [-79.32456272320783, -4.186029296809744], [-79.32097315408463, -4.186922999514275], [-79.31855300910037, -4.185323115576799], [-79.31850504796866, -4.184346824173107], [-79.31772900370454, -4.18395994339247], [-79.31564809789126, -4.180854634298374], [-79.31471797609976, -4.180644474207673], [-79.31470223791247, -4.180203003203855], [-79.3125735035132, -4.179414835316703], [-79.31019633347549, -4.17930814183161], [-79.30914337553591, -4.178485203475359], [-79.30839477064066, -4.178644050971799], [-79.30883438775098, -4.178110252947592], [-79.30833188105504, -4.177410526268868], [-79.3077098044306, -4.177574272213957], [-79.30762829125744, -4.178025341339874], [-79.30726267959267, -4.177830749979728], [-79.30708304008354, -4.177238071689979], [-79.3075065415956, -4.17644057484968], [-79.30674048357064, -4.175849142466733], [-79.30701707970987, -4.174825445678465], [-79.30661114673865, -4.174098174385935], [-79.30682110138967, -4.17353588662876], [-79.30512897791564, -4.171851187235796], [-79.30456148189782, -4.1701603845839585], [-79.30475413203757, -4.1683318955317645], [-79.30391860662333, -4.16724624174459], [-79.30434226757002, -4.166308010526544], [-79.30306642699028, -4.165863819753473], [-79.30289929012555, -4.16546150159409], [-79.30246292899591, -4.165924961961653], [-79.30236383794136, -4.165461779482441], [-79.30103116025961, -4.165131829671181], [-79.30085066692087, -4.16462468753335], [-79.30018334452505, -4.164446670036652], [-79.29977101304242, -4.163373894123575], [-79.2984557944397, -4.162670525677544], [-79.2983329962784, -4.16215154502709], [-79.29480083028449, -4.161563926355268], [-79.29302437537226, -4.162270669662841], [-79.292323598395, -4.161807377872631], [-79.29175718624613, -4.162022675934941], [-79.29019000496898, -4.16143499902666], [-79.2885463985854, -4.161700588259182], [-79.2882064817838, -4.161310455528215], [-79.28749064951472, -4.161475778887218], [-79.28672748193783, -4.160888568065095], [-79.28478242959578, -4.160651915581163], [-79.28421238084253, -4.160099142741049], [-79.28280266716426, -4.159923902729969], [-79.28228205613102, -4.159128369667105], [-79.28141984897462, -4.15880033212741], [-79.27984857712323, -4.156513388152027], [-79.27806559893537, -4.155229742496594], [-79.27556368503076, -4.149986429218812], [-79.27407145257871, -4.149033606016756], [-79.27288819169047, -4.147325359956235], [-79.27135285982509, -4.146839879586293], [-79.27047106648703, -4.145860596507177], [-79.2691897422876, -4.14548312326674], [-79.26681149603698, -4.146180450127392], [-79.26268924500481, -4.145489052055606], [-79.2614266730746, -4.145964482334995], [-79.26050602868824, -4.145547158865575], [-79.25962931040883, -4.145656931836451], [-79.25776383203774, -4.146603934420637], [-79.25643475292755, -4.146600997275539], [-79.25487113903642, -4.1475695914453725], [-79.25398504495786, -4.149031377453923], [-79.25303945436276, -4.149461330739428], [-79.25332750042654, -4.14887828486088], [-79.2530478991254, -4.146423711887215], [-79.25246945891477, -4.145957251764815], [-79.25087745666994, -4.14218733724262], [-79.25027737466598, -4.139760486802626], [-79.24865305046842, -4.136981743191714], [-79.24772879145684, -4.136283041700233], [-79.24773551735858, -4.135880043922817], [-79.2468080280088, -4.135557541601521], [-79.24571931827238, -4.134479108860153], [-79.24396070641232, -4.134067431261651], [-79.24282507178773, -4.133291059615717], [-79.24137493156508, -4.133083078987754], [-79.23822253567447, -4.13362639066806], [-79.23590801932957, -4.135080671021692], [-79.23448245749155, -4.133223290703984], [-79.23318008324212, -4.129654394104072], [-79.23104737708792, -4.1271261595195305], [-79.22760445194925, -4.123831073021707], [-79.22598110605324, -4.123445355952606], [-79.22533323931087, -4.122838313024778], [-79.22472315227824, -4.120491309084248], [-79.22427243323867, -4.1154491622738245], [-79.22486705003703, -4.111251096073075], [-79.22369500006529, -4.110022367673376], [-79.2240865037366, -4.1080639367102645], [-79.22376214233255, -4.107086659442508], [-79.2247619268551, -4.103825641468476], [-79.22452546497034, -4.102300971677117], [-79.22388645110941, -4.102197169161735], [-79.22348650684089, -4.100744381995568], [-79.22489816147633, -4.099034990137218], [-79.22499663355057, -4.098180263847379], [-79.22602900509219, -4.097153860099109], [-79.22672377536556, -4.096723354982925], [-79.22738065495668, -4.096773135085115], [-79.22812472964078, -4.096024655549506], [-79.22803361626387, -4.0948055787429105], [-79.22834082244188, -4.094359604723204], [-79.22789752224494, -4.093982222227947], [-79.22852265497137, -4.092831391490766], [-79.22869805755714, -4.088886513044748], [-79.22926181133629, -4.087723530493051], [-79.22892215100386, -4.086162390804299], [-79.22789772876042, -4.0853620769182815], [-79.22790830307946, -4.084938898554407], [-79.22626568324755, -4.082974232759768], [-79.22670122062303, -4.079936710497404], [-79.22541065757332, -4.076309205452721], [-79.22627756311906, -4.0721242321491244], [-79.22550623995184, -4.070746835680815], [-79.226307883856, -4.069157587682254], [-79.22463338647452, -4.066773345925203], [-79.22448032750609, -4.065947593428012], [-79.22500786548362, -4.064405590020355], [-79.22465281237216, -4.063340141216413], [-79.22574032262062, -4.061763482702409], [-79.22861708363246, -4.059114127691793], [-79.23030154230285, -4.056928677111038], [-79.23135097783538, -4.056416589235574], [-79.2309481582612, -4.0553988857815355], [-79.23067086480192, -4.051438664912273], [-79.23180588759723, -4.049909940354923], [-79.23194082072808, -4.04811584758342], [-79.2343185238203, -4.04484329367638], [-79.23492093170383, -4.041710405101129], [-79.23635942578426, -4.03767248515055], [-79.2382126531548, -4.035270818038592], [-79.23795336215507, -4.034429122602587], [-79.23829387397808, -4.034064337164377], [-79.23963786297259, -4.0338534059367825], [-79.2414055587065, -4.032314537070259], [-79.24415939947228, -4.031946281910755], [-79.2450863260141, -4.032230483046855], [-79.24341128480856, -4.029714610259964], [-79.24371069952286, -4.02840166626111], [-79.24323405610818, -4.027247423430345], [-79.24343380130937, -4.026308484681885], [-79.24444079006695, -4.024851961877747], [-79.24668058601628, -4.02302387534069], [-79.24792828019777, -4.022805087212293], [-79.2515076522299, -4.02046053635998], [-79.25552858754371, -4.014305936719598], [-79.25744297076055, -4.008108608725012], [-79.25745181207523, -4.003931065902871], [-79.2588097728791, -4.001902458878022], [-79.25882369919063, -3.998908694149269], [-79.2599591558068, -3.997803712026777], [-79.2598494475145, -3.995733787979154], [-79.26066718350235, -3.993826216051377], [-79.26274592771391, -3.9925781205297506], [-79.26404543113094, -3.990117745097666], [-79.26601392348786, -3.9900485155379406], [-79.2679343740267, -3.9886145657748138], [-79.27603186910918, -3.9917956547086555], [-79.28033991656147, -3.9929823454416513], [-79.28424762162827, -3.9927699750357375], [-79.28545665578079, -3.9926031768494896], [-79.2877247041567, -3.990237955553307], [-79.2885433157657, -3.9905450378256746], [-79.28929538228361, -3.990195814889164], [-79.29317896812958, -3.9902335800738418], [-79.29394201280304, -3.99097789171632], [-79.29627229454299, -3.99027009612523], [-79.29769603030448, -3.990835463535536], [-79.30337949715988, -3.9875236402264624], [-79.30846379127537, -3.987318178148711], [-79.31121508966498, -3.985951221564693], [-79.31136309101205, -3.9852447159354702], [-79.31198951668618, -3.9852063956016996], [-79.31270182239169, -3.984074897294166], [-79.31337622833311, -3.9838860752500524], [-79.31356248358958, -3.9828522072741936], [-79.31482656791732, -3.981754276966125], [-79.31482644919971, -3.9811340082441613], [-79.31555083399917, -3.9811093850004435], [-79.31694869789004, -3.9791023788929256], [-79.31816658310817, -3.9792294643923887], [-79.31740601274525, -3.978591368210146], [-79.31829663016765, -3.9785550672915337], [-79.32186292523555, -3.9738999170327847], [-79.32143475462546, -3.9725238882746097], [-79.32179643512619, -3.972274317861734], [-79.32214614068427, -3.9708688687161575], [-79.32352782967848, -3.970712663588776], [-79.32403066343872, -3.971268203049207], [-79.3248332631043, -3.970467870923911], [-79.32533864101849, -3.9704332726670857], [-79.32644381736667, -3.9707233467552756], [-79.32705080177114, -3.9704654472270793], [-79.32765813553908, -3.9708927142173005], [-79.32918736182165, -3.969756886430434], [-79.33010451190248, -3.9699725272267603], [-79.33108678181085, -3.9685494367820744], [-79.33189704603222, -3.9680037553841134], [-79.33295163052442, -3.968046945480574], [-79.33298808138821, -3.9675991625176503], [-79.33440651263503, -3.966822212712404], [-79.33437185091906, -3.9663795062342193], [-79.33510465249067, -3.965575068636509], [-79.3359077686938, -3.965231566937329], [-79.33458646328593, -3.965032126417804], [-79.33426359838803, -3.9656511705289934], [-79.33279713786803, -3.9660313219012777], [-79.33216079353205, -3.96496291359805], [-79.33144031134874, -3.9654591273751993], [-79.33134669557211, -3.964621511381863], [-79.33071787685316, -3.9645532454995136], [-79.33087676654115, -3.963730496449924], [-79.3296233102403, -3.96388587489525], [-79.32946763833007, -3.963105557233653], [-79.32887202141731, -3.9631139224318765], [-79.3285637233435, -3.962409860631437], [-79.32884271246414, -3.9620082461734705], [-79.32834338673149, -3.96152152886096], [-79.32866871632689, -3.9608618175786847], [-79.32798570731241, -3.960494360763924], [-79.32907109960301, -3.959081548289071], [-79.32752732931645, -3.9590736394386674], [-79.32765317149561, -3.9580976955178655], [-79.32676733228503, -3.957894920651009], [-79.32629162703523, -3.9560276977918925], [-79.32526340638945, -3.955369194668287], [-79.32508213069104, -3.954527575446933], [-79.32344969349462, -3.9538116207030103], [-79.322932689023, -3.9531157514496233], [-79.32248254318384, -3.9532928505558913], [-79.32153650980631, -3.952699472563887], [-79.32155323084145, -3.951966403108544], [-79.32042023478967, -3.9505189531941096], [-79.32029818524177, -3.949607591037834], [-79.31967361772647, -3.949328777759164], [-79.31978730040429, -3.948714580625752], [-79.31940674279241, -3.9484075518341335], [-79.31937565157436, -3.947756692811044], [-79.31819985676563, -3.9467455729136254], [-79.31856744997668, -3.945917511796456], [-79.31843690369497, -3.9444931519102555], [-79.31922696728533, -3.9439779454730663], [-79.31904758083637, -3.943146860051847], [-79.31965267094759, -3.9426829583839518], [-79.31961933617914, -3.9414880097170655], [-79.31865146561573, -3.9395560927077873], [-79.3173449583451, -3.9388667601944105], [-79.31742615963081, -3.9375796896546675], [-79.31909211569165, -3.934845890645377], [-79.31867701767861, -3.9339454215351517], [-79.318777008802, -3.929817455037277], [-79.31948792532626, -3.92932122361995], [-79.31935387126592, -3.928453622847816], [-79.31992471561277, -3.9277154513032997], [-79.31963625447189, -3.9272219872835796], [-79.32071488779785, -3.9263460658946094], [-79.31995973224699, -3.925617182099936], [-79.32064806833658, -3.924496902754968], [-79.32083531161106, -3.9223515646062856], [-79.32169946217469, -3.9217380311969436], [-79.32134385887994, -3.920636620209606], [-79.32323724476544, -3.9197303421143803], [-79.32342134636386, -3.918785522298055], [-79.32294356073002, -3.9181489967616647], [-79.32386877072143, -3.916588167455741], [-79.32409835705589, -3.913707768351354], [-79.32577616503193, -3.9129241442543456], [-79.32670875691988, -3.9118910519945658], [-79.32700406526853, -3.910393943023135], [-79.3275925267002, -3.909738203240097], [-79.32742453456466, -3.9089057279399406], [-79.3284174834294, -3.9086476949688254], [-79.33034195149115, -3.906061582566894], [-79.33383461766587, -3.9075178079472512], [-79.33472868402744, -3.9069338716566], [-79.34254722211713, -3.906725000130043], [-79.34508359059205, -3.9042300239837404], [-79.34516818065217, -3.902294768811044], [-79.34420191580512, -3.900474201708613], [-79.34466686195253, -3.898260306809663], [-79.34434504317669, -3.896595236286307], [-79.34453777107849, -3.8947716727367343], [-79.34501152327644, -3.894099700140675], [-79.34509374098926, -3.892998525479998], [-79.34643209398806, -3.89219039329274], [-79.34633390804167, -3.891339535662152], [-79.34702269117572, -3.8905361715959264], [-79.34715416606771, -3.889525737962796], [-79.34922576038457, -3.8862902684132608], [-79.35241440330473, -3.885757694629043], [-79.35264342846152, -3.88726789331862], [-79.35233947215417, -3.8890943392694], [-79.3527367327544, -3.8900403202427474], [-79.35394885557763, -3.8899489413414052], [-79.35483065007007, -3.8910469029724113], [-79.35882427502266, -3.8927508554346675], [-79.36037641021082, -3.8910419904473965], [-79.36404289339976, -3.885386259214446], [-79.36571412566964, -3.883475352695521], [-79.36771752554525, -3.8822589643815566], [-79.37200977208275, -3.882525683234113], [-79.3733619539105, -3.8830068362163543], [-79.37437018161626, -3.8839658634324605], [-79.37617824722918, -3.8845221804811616], [-79.37725035065914, -3.8855521103685695], [-79.37885806883943, -3.8858384652828235], [-79.37975068012378, -3.8852183958660698], [-79.38087085080777, -3.8859337436104076], [-79.38381188965394, -3.886501859243669], [-79.3854640381868, -3.887361656324755], [-79.3888310773068, -3.8876880513707377], [-79.39079508868348, -3.8885892447059582], [-79.39196022530538, -3.88851222304352], [-79.39442981937559, -3.887223865131814], [-79.39588784837878, -3.8874614502288676], [-79.39751640182521, -3.886876932536825], [-79.40025380303034, -3.8873041830450346], [-79.40158179327385, -3.8865724777239037], [-79.40224637439705, -3.8866421315271977], [-79.40249651989961, -3.8881907704569323], [-79.40145954859345, -3.89013289524642], [-79.39836759667983, -3.892211675669125], [-79.39769798186775, -3.8935742543298666], [-79.39778906167543, -3.8942264466882714], [-79.39645565526935, -3.8954441926960777], [-79.39656520698183, -3.8957763927777136], [-79.39754157390654, -3.8959726670159487], [-79.39787487892161, -3.8976601769047012], [-79.39716322569315, -3.899202127254126], [-79.397437769349, -3.900467806775844], [-79.39714773804435, -3.901089361533348], [-79.39716450015823, -3.9032428487653736], [-79.39769626375367, -3.9039168206563164], [-79.3971268477523, -3.904253704311063], [-79.39731842938204, -3.905297898317014], [-79.39641994078404, -3.9064267408546423], [-79.39816865486132, -3.909202663537498], [-79.3983839296699, -3.9103156946345377], [-79.3980757300584, -3.9126599782201965], [-79.3983954292913, -3.9136685273525877], [-79.39799034081894, -3.9152828421812527], [-79.39681270239831, -3.915995410358901], [-79.3971060191848, -3.916782581976764], [-79.39657203034245, -3.9188393010172424], [-79.39696666681422, -3.919774999531604], [-79.39841198921874, -3.919126345635328], [-79.4006859961072, -3.918952382700677], [-79.40170558279432, -3.917641828962748], [-79.40270211224072, -3.9174386288624445], [-79.40473324912472, -3.9157217821286574], [-79.40951287486261, -3.9093658989226276], [-79.41138706980873, -3.9046145592196666], [-79.41372350017264, -3.9027516061874303], [-79.4146761600376, -3.9014061013080936], [-79.41874344834858, -3.899024715168236], [-79.41869668865694, -3.8985289171356072], [-79.41965617832695, -3.8980133959606387], [-79.4194984331104, -3.897588156511551], [-79.42066900100372, -3.8960531659227047], [-79.42047903311138, -3.8955556873449875], [-79.42098049630803, -3.8947311375720077], [-79.42348943341953, -3.8940025489883947], [-79.42620591226435, -3.8917887802252094], [-79.42891204086278, -3.891491487502779], [-79.43309636516597, -3.890086541143531], [-79.43588039594245, -3.88795823782572], [-79.43620021956289, -3.8872575931881648], [-79.43658576218122, -3.887636342289762], [-79.43812078765403, -3.8876313441475796], [-79.44382763311116, -3.891094405380619], [-79.44586877687128, -3.8937031897758487], [-79.44606789470203, -3.894633679159837], [-79.44747222251839, -3.8956361109178466], [-79.44889383854907, -3.894953437550934], [-79.45367644114559, -3.8955843856226973], [-79.45538389483964, -3.895625382950912], [-79.45620012176828, -3.895137848929047], [-79.45983098296739, -3.896390110011809], [-79.46128169807744, -3.8951580852217096], [-79.46426541111133, -3.8946084173222606], [-79.46590793701695, -3.892697174475697], [-79.46550555533588, -3.891561111294029], [-79.46353898268755, -3.892530873361324], [-79.46225632403645, -3.8919952146763808], [-79.4606728442615, -3.891970133862577], [-79.46014280400793, -3.891818435079963], [-79.45961400157367, -3.89080922633104], [-79.45836340250192, -3.8904564728656066], [-79.4572053944713, -3.88962948286297], [-79.45600301075818, -3.886423588704443], [-79.45508232874752, -3.8855824142587942], [-79.45408895299815, -3.882937821483127], [-79.45344491681529, -3.877604316605434], [-79.45493508055594, -3.8727284106476416], [-79.45513652131828, -3.8676372006629647], [-79.45614160693505, -3.8668794932822528], [-79.45616577518638, -3.8661554116727967], [-79.45750978973993, -3.8651625806110643], [-79.45925028283587, -3.8623922328762537], [-79.46065336685315, -3.861262335440569], [-79.4609874093109, -3.859470942249677], [-79.46219706204903, -3.8575674278056318], [-79.46364162654292, -3.856626079203075], [-79.46429635405049, -3.8555146969368868], [-79.46423881132374, -3.8547559200236527], [-79.46535275373694, -3.8542856477081444], [-79.46649744607042, -3.8519431078640234], [-79.46753452164347, -3.8517009551312076], [-79.46806036710211, -3.850753521703604], [-79.4686405191025, -3.851033136080198], [-79.47003770111152, -3.849881436156083], [-79.47267811658888, -3.8501761309636597], [-79.47393128993703, -3.8496751820727066], [-79.4744950752529, -3.8498131083454323], [-79.47463406760541, -3.8495234646895202], [-79.47519108558154, -3.8497066104590374], [-79.47565396555896, -3.848985424007809], [-79.47630413777016, -3.849080759807601], [-79.47709813118958, -3.848475066159392], [-79.47739506779334, -3.8489909807855858], [-79.47881757986538, -3.8487757245263596], [-79.48007655729867, -3.847500260707984], [-79.48094252157593, -3.8472275595451513], [-79.48129757015926, -3.847478676517203], [-79.4822721216575, -3.846595440587374], [-79.48345252068827, -3.8466362471975915], [-79.48432334018352, -3.844997172326501], [-79.48465864732498, -3.845310881608935], [-79.4850111178169, -3.844991734380869], [-79.48551289959346, -3.845290453336715], [-79.48661168469098, -3.844943055517131], [-79.48752576889903, -3.8453394987593503], [-79.48810104633587, -3.841979068924007], [-79.48849322373239, -3.8422152199167], [-79.4886373265925, -3.841551225708835], [-79.48915339742523, -3.841778025344974], [-79.49006414070091, -3.8408225065468353], [-79.49097951280733, -3.840620834473903], [-79.49221502959429, -3.838670945844111], [-79.49326025798275, -3.8384545678389257], [-79.49340820212814, -3.8380427828352035], [-79.49387824722093, -3.838161341420079], [-79.49395992183908, -3.8388621099100613], [-79.49572360325338, -3.838935575370328], [-79.49637111385643, -3.8397421502847777], [-79.49767646808687, -3.8403531933942645], [-79.49818565564092, -3.8401588358811116], [-79.49866572971844, -3.8389707970477835], [-79.49953283445355, -3.838989074097436], [-79.50001563962716, -3.838076846576011], [-79.50161915539856, -3.8376508690426334], [-79.50195556148961, -3.837084834370959], [-79.50249089164419, -3.8371987172307893], [-79.50309563203534, -3.836578117937209], [-79.50386943832164, -3.8368211539810266], [-79.50458766040042, -3.8361500236400814], [-79.50571024218618, -3.8358361353787833], [-79.50822801795329, -3.835984116140362], [-79.50868062304083, -3.835309404857051], [-79.51039199329618, -3.8342289099982976], [-79.51170842107577, -3.834802942336745], [-79.51253112080458, -3.8343258063402783], [-79.5137881497371, -3.8347874274761033], [-79.51405732298348, -3.8339675495671863], [-79.5155452688167, -3.834228324377661], [-79.5163017918257, -3.8331691227874285], [-79.51631404234881, -3.8315898535557267], [-79.5180566481354, -3.8311774792608806], [-79.51914228666156, -3.8304557607527157], [-79.51933036377204, -3.8296941976772048], [-79.52099082671951, -3.829392702147307], [-79.52235860949534, -3.828617864818715], [-79.52303004750004, -3.827156503003059], [-79.52390757969177, -3.8266488155286376], [-79.5240538151791, -3.8258335774683143], [-79.524746485674, -3.825325569150957], [-79.52421016559764, -3.823561573695643], [-79.52518211416115, -3.822447213560039], [-79.52499379595524, -3.821124108095508], [-79.5252548353821, -3.8200391491937893], [-79.52625695873306, -3.8191066965200906], [-79.52602790886614, -3.8181989235450216], [-79.52750022823966, -3.817854967124641], [-79.52752610464385, -3.8166490017187744], [-79.52915665964427, -3.8152902532669297], [-79.5311060680896, -3.8141420229364136], [-79.5319309825134, -3.814098568921684], [-79.53471981204228, -3.8117224189733614], [-79.53607381038616, -3.8111875272520246], [-79.53695964463462, -3.809983022235914], [-79.53699198364573, -3.8091718884363295], [-79.53793788472322, -3.808791116303734], [-79.53845358836634, -3.806698215373947], [-79.53988209346923, -3.8057674171035853], [-79.53995742021738, -3.8048893536014146], [-79.5417374417016, -3.801855714277681], [-79.54366331255991, -3.8020575077611833], [-79.54601797052801, -3.8007417686102416], [-79.54610723855382, -3.799333738444833], [-79.54654919104613, -3.7985985873957557], [-79.54326381092835, -3.798461069138164], [-79.54153134065162, -3.7967053405994635], [-79.54042841566233, -3.797402196885221], [-79.5373349128597, -3.7968441898211354], [-79.53687522934409, -3.7953849436561913], [-79.53530384397322, -3.7948845523995467], [-79.53332900875277, -3.792780239966813], [-79.53219358109301, -3.7929769172815964], [-79.53008576870911, -3.7920401009309073], [-79.52913403399295, -3.7927838606355313], [-79.52871877850772, -3.7918260002360564], [-79.5275935700965, -3.791615899122492], [-79.52711205637019, -3.7911018037688433], [-79.52577769981896, -3.791312490413797], [-79.52410751518323, -3.7900868739097198], [-79.52279119681504, -3.790651408634053], [-79.52178242562704, -3.790613907272039], [-79.52032490744182, -3.7900686816578855], [-79.51999494379257, -3.7894507777987703], [-79.51895097738901, -3.7889594057753864], [-79.51761109729533, -3.789340442429784], [-79.51660676107859, -3.7882403900809876], [-79.51569065090838, -3.7890471252479783], [-79.51440265753668, -3.789174124222658], [-79.51340001890776, -3.7887574742941044], [-79.51243276676684, -3.789380344967334], [-79.51173975593821, -3.790107058581931], [-79.51203281387494, -3.791745717754091], [-79.51182144606724, -3.7924847473536865], [-79.51086192235068, -3.793674875094996], [-79.50919466271088, -3.7942343147487265], [-79.5079823903839, -3.7940988153412576], [-79.50714545146784, -3.7935306176071286], [-79.5065076381761, -3.793738169644356], [-79.50550544978022, -3.793060689892354], [-79.50521434677701, -3.7922332142586503], [-79.50262672807479, -3.7914955552115335], [-79.50045818778582, -3.789534914224799], [-79.49961451786672, -3.7897689034473463], [-79.49890525113413, -3.7908013808737477], [-79.49888782832244, -3.7917876820207996], [-79.49573646474947, -3.7941683349596214], [-79.49479174464315, -3.795803390803221], [-79.49338804734892, -3.7958913865551964], [-79.49286975173005, -3.797202249374763], [-79.49322575269922, -3.7979614033938804], [-79.49260416054344, -3.8010357738091196], [-79.49215755581805, -3.8014211961290627], [-79.48983420434978, -3.8018652981156937], [-79.48902007266116, -3.803050236920499], [-79.487544858789, -3.8032656304676675], [-79.48718670956161, -3.802648606078166], [-79.48525882992479, -3.8022518302298822], [-79.4849209790882, -3.80147021429806], [-79.4834691008649, -3.801863908545894], [-79.48255670416452, -3.80161631648123], [-79.48149557877947, -3.8020977947335126], [-79.48015815148595, -3.8020212545009984], [-79.47879945968889, -3.8025249350180848], [-79.4768767665595, -3.8012833651032443], [-79.47597697937594, -3.801929029544841], [-79.47471256268865, -3.801652211720445], [-79.47424735764513, -3.802723370505753], [-79.4728215615063, -3.802103492319253], [-79.47146277821122, -3.8027266799602555], [-79.4712018026499, -3.8032086078748937], [-79.47043088943677, -3.803242889635577], [-79.46985744712683, -3.8042265132295743], [-79.4690233497827, -3.8044284169033276], [-79.4687963672022, -3.805489225356982], [-79.46738577490102, -3.8058997200665257], [-79.46672926857558, -3.805560324929648], [-79.46599771727732, -3.8059657974515], [-79.46398067922901, -3.8075012478848684], [-79.46402931988483, -3.8080133955840307], [-79.46242112071823, -3.8093725037090973], [-79.45994504243417, -3.8095882278455986], [-79.45929693223455, -3.8090117981683655], [-79.45861247493411, -3.8092813361968547], [-79.45568804734765, -3.8121024865184685], [-79.45452851754405, -3.811748420033476], [-79.4542465371882, -3.812100161234942], [-79.45391532776995, -3.811886858208539], [-79.44893785484163, -3.8130544451769754], [-79.44875895503601, -3.8127559539576867], [-79.44821722389797, -3.81285933703473], [-79.44656209872913, -3.811487049818337], [-79.44408828557691, -3.8128371146126407], [-79.44375276234774, -3.812321292913781], [-79.44443415547339, -3.811503903680303], [-79.44229825535656, -3.8097894355100403], [-79.44184380980768, -3.8084183281324075], [-79.43946971730963, -3.80854333917231], [-79.43871592482003, -3.8078201116006563], [-79.437901771358, -3.807918743088973], [-79.4361128588947, -3.80691309966529], [-79.43444093476984, -3.804992008598729], [-79.43423743402319, -3.804111339352315], [-79.4330345409476, -3.803357629224583], [-79.43262503802168, -3.802185111711276], [-79.43211340655824, -3.802078098383902], [-79.43123957585436, -3.801077918137217], [-79.42978859707884, -3.80105374714643], [-79.42928001803939, -3.8000070257108387], [-79.42949528572534, -3.7983614973641764], [-79.42890638934779, -3.7969724230986794], [-79.42879431925799, -3.794273360583641], [-79.42746437644534, -3.793539495096152], [-79.426227629741, -3.7920521124333924], [-79.42453335909875, -3.791310344963885], [-79.42138106006134, -3.790822833740704], [-79.42035674156776, -3.790011295085757], [-79.41922378183, -3.7898325102052945], [-79.41773774296414, -3.7885071779192168], [-79.41535540851874, -3.787861896596116], [-79.41384262427898, -3.7868924628430234], [-79.4064025000971, -3.786003333522009], [-79.40665181177313, -3.784943637135037], [-79.40586131012871, -3.7842492851439666], [-79.40506446027464, -3.7827274057693403], [-79.40497483097963, -3.7812658725113355], [-79.40586281021511, -3.7781479699451026], [-79.4056837732695, -3.7757513072331315], [-79.40479050003165, -3.774465954871999], [-79.40528176167606, -3.772538866728044], [-79.4038988582524, -3.77080876056656], [-79.40296688044587, -3.7672406638747664], [-79.40300520499895, -3.7657244522197755], [-79.40356848980998, -3.7644405849492975], [-79.4041862423689, -3.763983510032123], [-79.40425877973748, -3.762233480948788], [-79.40381945105878, -3.761627192802859], [-79.40459669798727, -3.7587974063569205], [-79.40506640804225, -3.758537458106845], [-79.40509225187135, -3.7554556507866064], [-79.40316219567057, -3.7531010385427774], [-79.40468728909946, -3.7490435503183592], [-79.40612871430234, -3.7475184185128754], [-79.40719719898017, -3.7447699063241697], [-79.40765618573734, -3.744507541525811], [-79.40714106688462, -3.7413313661332275], [-79.4086619584745, -3.7406354541784346], [-79.40884765727463, -3.7398916469593497], [-79.41005100364212, -3.7390849666877406], [-79.41081567789256, -3.7330769605044676], [-79.41187681875319, -3.731737746658261], [-79.4125585017457, -3.7294838109936395], [-79.41358830150764, -3.7276863235344635], [-79.41569087918043, -3.7268191596012787], [-79.41597890638556, -3.725693504353594], [-79.41485620990169, -3.72379477193887], [-79.41364911550494, -3.723122250840022], [-79.41129048654177, -3.720365124154645], [-79.41064511913623, -3.7184449690363963], [-79.40887507516061, -3.7173147818488723], [-79.40591962018031, -3.717152625712463], [-79.40630214701655, -3.716351748363667], [-79.40590455160115, -3.715232880247378], [-79.40374853530282, -3.7131081270501216], [-79.40255756628694, -3.7127460207133027], [-79.40138279634877, -3.70965081640804], [-79.39736983515435, -3.7080777045305884], [-79.394715248973, -3.708133888988803], [-79.39393489714652, -3.7076527251878906], [-79.39309574026804, -3.7080818882502222], [-79.39118996966862, -3.7082794016254312], [-79.3891974998363, -3.706900423074031], [-79.38740734960858, -3.7042814228943826], [-79.38358097413149, -3.7023650309608844], [-79.38232884904312, -3.7007779611901968], [-79.38168542375574, -3.6989112570479126], [-79.37996686835365, -3.697675858704206], [-79.378785985991, -3.6962249631500295], [-79.37899657557509, -3.695515174383121], [-79.37797183545412, -3.694585597258049], [-79.37697601865165, -3.69210731147647], [-79.37578185112693, -3.690590841459605], [-79.37296315635201, -3.680923351928052], [-79.36827027758042, -3.680923333052857], [-79.36547370737301, -3.6780392329053018], [-79.36156243397879, -3.6782584813903347], [-79.35854407175266, -3.6814835116891325], [-79.35859484988117, -3.683633791448462], [-79.35910490877048, -3.6850598309026172], [-79.35673162551748, -3.6876760753259377], [-79.35588152686702, -3.691862089124832], [-79.35366701007231, -3.691410866527901], [-79.35134404406891, -3.69165071133718], [-79.35017267806936, -3.6955651010749206], [-79.3480129701447, -3.696941366568177], [-79.34763251020296, -3.698073494878836], [-79.34487956518478, -3.6973913723363876], [-79.34269558812849, -3.695351305622103], [-79.34082346609998, -3.6952497125531827], [-79.33982705454608, -3.6940704438291436], [-79.33911278797304, -3.693944685301053], [-79.33498473350873, -3.6953036199702325], [-79.33412661699718, -3.6959451501794383], [-79.33162837141185, -3.6962469077952815], [-79.330778725075, -3.6971030312046578], [-79.32838877572311, -3.698412336451552], [-79.32737576216743, -3.6998259300084975], [-79.3273292557663, -3.703124613428203], [-79.32658944721513, -3.7043293279892144], [-79.32479238335705, -3.7056662929460282], [-79.32511258315887, -3.707809381807273], [-79.3258823275573, -3.709767906977971], [-79.32580678753386, -3.711807209905948], [-79.32668579048206, -3.713724615573738], [-79.32660162723458, -3.715248343098482], [-79.32397639054804, -3.7173408230124094], [-79.32264117857433, -3.7176525481591827], [-79.31762463260348, -3.7208233182721098], [-79.31713770226845, -3.719155262278079], [-79.31577026565353, -3.716967029687542], [-79.3108783991691, -3.715850094275127], [-79.31051956714344, -3.7130476974210302], [-79.30823274317628, -3.710906619866631], [-79.3079126498666, -3.710206402836963], [-79.30790018291395, -3.708233134054502], [-79.30877508788866, -3.7062473026858322], [-79.3079583134559, -3.7046619639736433], [-79.30766708071378, -3.7002901951754716], [-79.30659870379023, -3.6983717844527515], [-79.30352406590539, -3.6970531631387975], [-79.2997079441445, -3.694255924733113], [-79.29869418214862, -3.6940561715355313], [-79.29686304381069, -3.6920898749612907], [-79.29517304940478, -3.691872157465589], [-79.2945370758686, -3.690250621274484], [-79.29351967474632, -3.6893895011531432], [-79.29241906397584, -3.687596714888513], [-79.28981842356656, -3.6868149305627917], [-79.28822254072536, -3.6857016885405844], [-79.28565346636312, -3.686018850677833], [-79.28347749817861, -3.687749956816226], [-79.28302188799856, -3.688577754234919], [-79.28107063169016, -3.6887631043510516], [-79.28021723406438, -3.689806330421618], [-79.27890543037152, -3.6901801035225317], [-79.27791654222672, -3.6884486365231095], [-79.27685947166181, -3.6875666064959858], [-79.27556693905942, -3.6874849058060146], [-79.2729047352974, -3.686450289630432], [-79.2716188402235, -3.6829318743857695], [-79.27110983707612, -3.6822966372657864], [-79.27034978763794, -3.682272535194976], [-79.26868391824375, -3.6791450438801263], [-79.26487054871042, -3.678597867473218], [-79.26237732724718, -3.6771686139866713], [-79.26172001365015, -3.6763959559952197], [-79.26210187083699, -3.6738360134975903], [-79.26078579971788, -3.6724411152617282], [-79.25973414877495, -3.672130233640966], [-79.25797219368947, -3.672293079277905], [-79.2550203378093, -3.6702799204544645], [-79.25456686505137, -3.672440821506001], [-79.25235135541202, -3.6736777113648387], [-79.2511718616482, -3.675105413570925], [-79.25069393477105, -3.678911824021883], [-79.24902433410617, -3.6801505912642734], [-79.24854946070384, -3.681147401550386], [-79.24728341654028, -3.6816437764870615], [-79.24671651687588, -3.682439829100436], [-79.24225604882332, -3.682940405275373], [-79.24062486272382, -3.682735249418029], [-79.23863621444083, -3.6815391223886196], [-79.23791009475538, -3.679410290047212], [-79.23443663429312, -3.67914773291185], [-79.23287011181334, -3.679750333731632], [-79.23214033293762, -3.680485360426882], [-79.23133337041267, -3.6820041147885503], [-79.23152002978279, -3.6832754129163185], [-79.23109034479027, -3.6857690115024018], [-79.23009394250543, -3.686978447420383], [-79.2277868278766, -3.687793406452099], [-79.22652969989996, -3.6897507261837617], [-79.2240330781758, -3.6924425361354682], [-79.22037355250777, -3.6937437327385534], [-79.21782540682499, -3.697648016027308], [-79.21891500642664, -3.699105672644715], [-79.220303768289, -3.703316008486855], [-79.22093081189084, -3.7038299606127736], [-79.22054702972169, -3.7049956940740705], [-79.22113951513039, -3.7074383713445247], [-79.21956138394181, -3.7095673326797276], [-79.21740953640212, -3.7093471853113686], [-79.21476672150995, -3.7074526191147172], [-79.20987829806988, -3.7080272168531208], [-79.20650052950747, -3.7088427678285045], [-79.2034146189326, -3.7103495635682937], [-79.20094815058998, -3.7175467760440912], [-79.19820550028456, -3.7241049056841735], [-79.19701490434656, -3.7254356812230722], [-79.1952416982842, -3.731169963209415], [-79.19430532313814, -3.7319551615054714], [-79.19184372727203, -3.73212485499027], [-79.19217296088348, -3.734610483928468], [-79.19112058249772, -3.735390094664599], [-79.19193127651361, -3.736087982020341], [-79.19339844483169, -3.7363687021842464], [-79.19391692299259, -3.739361195791748], [-79.19454735342332, -3.7396330650780873], [-79.19462086595705, -3.7400788177185973], [-79.19207085293431, -3.7437615153477166], [-79.19017344818558, -3.7457194177808133], [-79.1902653929917, -3.7473345315984927], [-79.18930870813773, -3.748590492206752], [-79.18970162981803, -3.7493191186151136], [-79.19102593400599, -3.750129707418119], [-79.19052773132466, -3.7522791603513452], [-79.18911536775647, -3.753750350187138], [-79.18609384227702, -3.7549100073198174], [-79.18549519811901, -3.756475828845176], [-79.1840985402587, -3.757639245554222], [-79.18457817853498, -3.758546935234251], [-79.1836583553384, -3.76096525209802], [-79.18128498542389, -3.762957744529399], [-79.18106846448, -3.764158722348932], [-79.18027777425259, -3.7646632315992603], [-79.18006703979702, -3.765405134878197], [-79.17898954981558, -3.765594215612636], [-79.17958153820524, -3.768017361319172], [-79.17807537785832, -3.7705565515190425], [-79.17813842912607, -3.7720157685965665], [-79.17914437729038, -3.773597328979565], [-79.1776845122655, -3.7749718964060275], [-79.17833315836585, -3.776552175874893], [-79.17719095873763, -3.776663943891145], [-79.1769174853677, -3.7773148918641803], [-79.1772900425756, -3.778502816054138], [-79.17785731417355, -3.7789054651748026], [-79.17790017829626, -3.780337865189518], [-79.17660392704217, -3.7806294054416747], [-79.1763478102291, -3.783194120008046], [-79.1753468992874, -3.78455272747467], [-79.17564835412314, -3.784973528314154], [-79.17552544296825, -3.786967917721152], [-79.17599931836031, -3.788146008734966], [-79.17579353941623, -3.7908729754307586], [-79.17698166929377, -3.792176985300838], [-79.17663901713986, -3.794244364304957], [-79.17513517132811, -3.7958957411942285], [-79.1737051116352, -3.796380770693869], [-79.17349248174838, -3.7978253624822704], [-79.17224248364613, -3.798760550085898], [-79.17194493305206, -3.7998125970030703], [-79.17025370486982, -3.8021631723557543], [-79.16828037683712, -3.802752297869521], [-79.16577438975881, -3.802938351408209], [-79.1627749672112, -3.803781757628122], [-79.16161690189429, -3.8046998746701144], [-79.16036924520087, -3.804834556480557], [-79.1598796099862, -3.806294302957549], [-79.16078231279143, -3.8074063268795135], [-79.16109292795217, -3.8108103780714178], [-79.16028541774747, -3.8125920642676925], [-79.1585401882169, -3.8140537343068277], [-79.15834750820895, -3.8148121856653097], [-79.15681548310484, -3.8163682419739224], [-79.15699143997523, -3.8184720619607204], [-79.1538081542705, -3.819318806342567], [-79.15265616031687, -3.818952671962245], [-79.15088669431597, -3.819218445415703], [-79.14969501443314, -3.820816340561607], [-79.14807327652835, -3.821463870334919], [-79.14637278390938, -3.821302798552095], [-79.14569442059219, -3.820796571338807], [-79.14437437580696, -3.820994704696757], [-79.14334562961344, -3.8215637682975], [-79.14293119427205, -3.8223576085289324], [-79.14339691802364, -3.822894477596097], [-79.14328894901429, -3.8243679695916684], [-79.14198989092876, -3.825934568453106], [-79.1425553131324, -3.828788789974299], [-79.14308563772913, -3.8294825056461836], [-79.14210326004252, -3.8307961930672114], [-79.14231789341412, -3.8318658681287414], [-79.14200894227803, -3.8330351508439597], [-79.14233282386576, -3.833606445736087], [-79.14126166009095, -3.837287434873465], [-79.14064400327635, -3.837631678361431], [-79.13984989071685, -3.839052783269259], [-79.1407597864112, -3.8410569291838463], [-79.14048693124207, -3.8422313599998215], [-79.14123086800278, -3.84253190907992], [-79.14026878761837, -3.8471522448603617], [-79.14073070507449, -3.8481412011429104], [-79.14333303645942, -3.8493154108588215], [-79.14348277206018, -3.8504654496095534], [-79.14555518790151, -3.8544917573545754], [-79.14542240046806, -3.856279376366882], [-79.14451562384409, -3.8580936932120222], [-79.14409134386842, -3.857928287140859], [-79.14335931737355, -3.8585726560205127], [-79.14243350288346, -3.8585390698626947], [-79.14122763139162, -3.859621393530382], [-79.14104574918194, -3.8602998792077754], [-79.13993451284294, -3.860626392854198], [-79.13880139383213, -3.8615345374230694], [-79.13821905716127, -3.8613173309378412], [-79.13702805664154, -3.8625118896300545], [-79.13680836786565, -3.863310549552014], [-79.13632088677886, -3.86310666131666], [-79.13590918069052, -3.864645809401138], [-79.13531116042283, -3.864890798969623], [-79.13534623712442, -3.8653176644378875], [-79.13465330635258, -3.8660272088745318], [-79.13465495661336, -3.8669605399461533], [-79.13428517920818, -3.8669014024516652], [-79.13349555992187, -3.868475066951366], [-79.1329829935366, -3.8685855145083137], [-79.13329546563908, -3.8696133884699826], [-79.13161212626946, -3.872111527053394], [-79.13060386249502, -3.8741603141924337], [-79.13065632746697, -3.874743012649845], [-79.1301752896751, -3.874965557866298], [-79.1295705418049, -3.8781852813121227], [-79.12959497922321, -3.8795583768584643], [-79.1303598674736, -3.8798682285355475], [-79.13156442353501, -3.8815768729209674], [-79.13201455954106, -3.884519422339104], [-79.12911274448224, -3.8887691290420565], [-79.1290955901166, -3.889742455070761], [-79.13180646454028, -3.894103972600799], [-79.13576443373907, -3.897393701874119], [-79.1363108923149, -3.898499410971201], [-79.13682232702955, -3.8985033502822546], [-79.1372544118138, -3.8993415203761277], [-79.13777944453328, -3.8993440428138406], [-79.1381746031487, -3.899862401349122], [-79.14187016700771, -3.901199795221116], [-79.14287415025909, -3.9019394983790052], [-79.14282419020287, -3.902551722265495], [-79.14342723307922, -3.9026168963256382], [-79.1432065951317, -3.9033043345421587], [-79.14364818000499, -3.9036330009630533], [-79.14372105457508, -3.9043105104638895], [-79.14318095082885, -3.9062880078063467], [-79.1438531687775, -3.9073220226073286], [-79.14373337013927, -3.909068972798138], [-79.1441386761666, -3.909847678581393], [-79.14418723554238, -3.9111825897620025], [-79.1436398532869, -3.911799496272768], [-79.14318766720488, -3.915995407113584], [-79.14558272730748, -3.920404172972052], [-79.14525901438132, -3.9208787092343793], [-79.14552316497634, -3.9213673926159927], [-79.14525449219869, -3.9221129542545317], [-79.14594027587675, -3.9220198081261], [-79.14580223990261, -3.9229271536115227], [-79.14676539270141, -3.9230039838500717], [-79.14700515692587, -3.9238146049262936], [-79.14831423725713, -3.9251857768194762], [-79.14754947960567, -3.926183598404887], [-79.14834796155237, -3.9271225051595446], [-79.14754264280073, -3.9303843955024615], [-79.14785933294414, -3.9321149587072473], [-79.14861417052565, -3.9328365776066585], [-79.14550632961519, -3.9332712039744853], [-79.14427812244577, -3.934135472178689], [-79.14422625021108, -3.9349707853861555], [-79.1428872696712, -3.936803727069285], [-79.1420972104113, -3.9366605692201055], [-79.1421263718719, -3.9370453324089976], [-79.14268763882626, -3.937238937622441], [-79.14357028727692, -3.939457236862435], [-79.14310465145437, -3.939965777324944], [-79.14296483468593, -3.94307320041111], [-79.14208468288665, -3.944236808122477], [-79.14207412032644, -3.9451310657620318], [-79.14058443864636, -3.948579099394805], [-79.13948596729746, -3.9499421201311855], [-79.14349689249786, -3.952768422062576], [-79.14485646091616, -3.9541227041693174], [-79.14637899848833, -3.954180144979953], [-79.14678146764524, -3.955730891782103], [-79.14655261573542, -3.9575199011563207], [-79.14731793974971, -3.9595829191163783], [-79.14786536843705, -3.95986370546261], [-79.1501346689546, -3.9630924452094507], [-79.15146283444766, -3.9637400724813556], [-79.15101809501374, -3.965170652341663], [-79.14921069018592, -3.9677653505207635], [-79.1482519380172, -3.968693366643435], [-79.14701631668086, -3.9690063873600954], [-79.14512966565053, -3.9724031884106363], [-79.14460956414878, -3.972540784433155], [-79.14402795998926, -3.9733366144598583], [-79.14294802260085, -3.973536456587634], [-79.14434613841227, -3.9755043736961793], [-79.14378236959412, -3.977270490864567], [-79.14380681065234, -3.97965397995245], [-79.14455247812047, -3.9830947476150333], [-79.14555481812093, -3.984668440359241], [-79.14429549351019, -3.985779163839912], [-79.14441204839336, -3.9878667767068654], [-79.14539151637474, -3.989090938505491], [-79.14456221666961, -3.990808005412977], [-79.14618759934588, -3.9910305890865225], [-79.14726527967265, -3.993283087043339], [-79.1472200002215, -3.9943523915467387], [-79.14784407525262, -3.994917216065847], [-79.14712388695649, -3.995780442400497], [-79.14692384600716, -3.9973410362902624], [-79.14652462472105, -3.9978540924769823], [-79.14663556053398, -3.99873348259577], [-79.14517537041421, -4.00057782726109], [-79.14491211474007, -4.001643046456381], [-79.14498015380973, -4.002637245440732], [-79.14550632882259, -4.003545848267433], [-79.1445262662156, -4.013547912622027], [-79.14490993600072, -4.01581678589215], [-79.1460789283594, -4.017826197825851], [-79.14375264700371, -4.023591451857681], [-79.14226592317353, -4.025337379427436], [-79.14101517623001, -4.029963331425581], [-79.14005878949844, -4.03095518129554], [-79.13933005487935, -4.030838675635294], [-79.1375971027082, -4.032316787830126], [-79.13740195897972, -4.03327090425124], [-79.13650557782987, -4.034585857583336], [-79.13638781964931, -4.035818266630115], [-79.13761088396691, -4.038553192256599], [-79.1374129226364, -4.039696301138774], [-79.1393819974484, -4.04124631588713], [-79.14006477928652, -4.0448029876390645], [-79.1414089338494, -4.0472032612753726], [-79.14137020972461, -4.048513010581989], [-79.14252028517996, -4.049415197726982], [-79.14205868343568, -4.050463442423659], [-79.14207733286699, -4.051687197034821], [-79.1415864295009, -4.052263831202317], [-79.14169761742083, -4.053651080252481], [-79.14089861899753, -4.0556552650231525], [-79.13991010702256, -4.056611139817852], [-79.14124852705237, -4.057353477257525], [-79.14252331818005, -4.059355266015485], [-79.1448216010503, -4.061713860091119], [-79.14563324208238, -4.0618062693805985], [-79.14775245115112, -4.063365014456456], [-79.15096568337155, -4.064721721519808], [-79.15356636581433, -4.066719378138734], [-79.15440623399712, -4.072976273849377], [-79.15570386638795, -4.075954224229903], [-79.15519058790514, -4.076932738562923], [-79.15507010618964, -4.081181391166168], [-79.15428239457998, -4.081829117656645], [-79.15479629540057, -4.082146099270281], [-79.15565297681688, -4.084161290103265], [-79.1558624776423, -4.08475389540484], [-79.15559491874633, -4.0861097782496385], [-79.1568113253687, -4.088664092809536], [-79.15926163759976, -4.090812147266081], [-79.16005308484611, -4.093229117841653], [-79.1611221200565, -4.094595259316015], [-79.1604078024066, -4.09752552674396], [-79.16043440471134, -4.099958680482285], [-79.16113000382059, -4.104696561979843], [-79.1619197127632, -4.1063120729275635], [-79.16168850893845, -4.107392914272161], [-79.16232668296668, -4.109633695288363], [-79.16226445892818, -4.111834581173084], [-79.16273883815896, -4.114850129863928], [-79.16169751471219, -4.115938667410258], [-79.16145949367224, -4.117909472142804], [-79.15989256531456, -4.119614031528187], [-79.15934603615761, -4.121043430628656], [-79.15949285601533, -4.123507962480819], [-79.15921903192641, -4.124464293992677], [-79.1594697967646, -4.125244804954137], [-79.15911410193648, -4.126574163386086], [-79.15714789489084, -4.128706254953244], [-79.15803595372618, -4.129155468806836], [-79.15790363578141, -4.129801520909504], [-79.15909545247959, -4.1306260867317555], [-79.1593794360474, -4.131466486138422], [-79.15921258228266, -4.132528331394765], [-79.16012430673322, -4.134076727047024], [-79.16017933866272, -4.135009898320676], [-79.15946284624711, -4.135740311877036], [-79.15898660274313, -4.137526761919902], [-79.15728160253042, -4.139152024205723], [-79.15774405126871, -4.14009332196987], [-79.1575640879184, -4.140638372797439], [-79.15797076468492, -4.140969474720687], [-79.15789962291828, -4.143911979339394], [-79.15698379014728, -4.145445772046955], [-79.15710144181494, -4.146086016861642], [-79.15763720432318, -4.146236794110647], [-79.15790406753078, -4.146751787139802], [-79.157521379514, -4.147378901691205], [-79.15823689715837, -4.149647386437304], [-79.15799716876784, -4.151199746722587], [-79.15879012667533, -4.152543502545685], [-79.15997375961791, -4.153311841415739], [-79.15829875471272, -4.153798371755486], [-79.15788063894608, -4.154287838951911], [-79.1558712447254, -4.155120480306207], [-79.1553870184788, -4.155860993449787], [-79.15391934298287, -4.156844421150944], [-79.15391703242355, -4.157837265556254], [-79.15214577609869, -4.158724279134773], [-79.15101587465824, -4.1604620992042705], [-79.14971018107153, -4.160949470475963], [-79.14857301030334, -4.16069559116806], [-79.14604981142104, -4.162166951223164], [-79.14437525318021, -4.1624560677365094], [-79.14388550305094, -4.163005162285409], [-79.14017331208852, -4.163456920270103], [-79.13894843872136, -4.162503045278665], [-79.1372812744571, -4.162182104867752], [-79.13552023910239, -4.161250879824227], [-79.13479336939726, -4.1613089651591455], [-79.13250627702789, -4.163695915734405], [-79.12861705590457, -4.165965398259352], [-79.12873493385891, -4.166497982487438], [-79.12822726039077, -4.167064961499732], [-79.12612805309462, -4.168076710887929], [-79.12503980144177, -4.1698085798360855], [-79.12498887056158, -4.171190051663858], [-79.1253322827619, -4.172070068827965], [-79.124437009592, -4.172803580855135], [-79.12355747495492, -4.174434266995679], [-79.1222862615491, -4.175441996692217], [-79.12137612344694, -4.177413515480127], [-79.11949962331639, -4.177444896491189], [-79.11694034710457, -4.179023683683532], [-79.11533921978682, -4.180981562510015], [-79.11427866666592, -4.181074701807529], [-79.11279960113986, -4.181806783654452], [-79.11182881658958, -4.181726689474798], [-79.10928497825834, -4.184310262068387], [-79.10793676521392, -4.1850149608549145], [-79.10765262801463, -4.188141867060125], [-79.10532638700376, -4.193361939371025], [-79.10476617284115, -4.1956449962487845], [-79.10492880805741, -4.196365110452063], [-79.10584019248071, -4.197301694928344], [-79.10527544262499, -4.197933616973784], [-79.10536522871188, -4.19919309811223], [-79.10503593553648, -4.1998800954993145], [-79.10542834603659, -4.200192054364731], [-79.10554895499585, -4.202545215037376], [-79.10656877486386, -4.206504630534191], [-79.10599110417193, -4.206929061370585], [-79.10507692347707, -4.206587122031662], [-79.10091645118015, -4.208576965202112], [-79.10056132372934, -4.209595231537545], [-79.10075285145543, -4.211188993665297], [-79.10214519651434, -4.212838323537367], [-79.10313057429158, -4.215266561582476], [-79.10658990068289, -4.219442468128011], [-79.10898162441018, -4.224644477457892], [-79.108879810644, -4.225359540059688], [-79.10683329090458, -4.228941283548185], [-79.10711920413613, -4.231441164417575], [-79.10677767391272, -4.232817320277199], [-79.10753213489338, -4.235571955976493], [-79.10718015876398, -4.237000517078611], [-79.10734384725652, -4.23857843746363], [-79.10614902526243, -4.2399444364097985], [-79.10631661176154, -4.241786070938092], [-79.10551302536541, -4.243961125801992], [-79.10562283046035, -4.244981251530387], [-79.10749038795201, -4.248725489811027], [-79.10599948021732, -4.250906086250672], [-79.10538183163388, -4.252557522132062], [-79.10566897778625, -4.25331268461634], [-79.10558423932186, -4.2574730755672245], [-79.10597371911945, -4.258017096146842], [-79.10580653215924, -4.260119550225671], [-79.10758274789346, -4.2626813407713895], [-79.10761066588834, -4.264906286434557], [-79.11056259202613, -4.266138442600166], [-79.11311175555075, -4.266412661633771], [-79.11382514101209, -4.267036427258402], [-79.11463687557469, -4.266972470835895], [-79.11472979928756, -4.267402289796385], [-79.11454121466488, -4.268511876287958], [-79.11251470162087, -4.27250536825737], [-79.11203978098065, -4.277945916895277], [-79.11121431006431, -4.278326653792139], [-79.10996657073899, -4.27986902493372], [-79.10842036004321, -4.280678596439276], [-79.10809966156641, -4.283175406382412], [-79.10649684715978, -4.285678605375245], [-79.10615921880755, -4.289237565931529], [-79.10679680985896, -4.289674553542253], [-79.10903060819676, -4.294172911151273], [-79.11073307461507, -4.295732157250491], [-79.11226205944897, -4.296128293210098], [-79.1145013945994, -4.302267820587868], [-79.11574223244354, -4.303553195635495], [-79.11904495438218, -4.305623582721632], [-79.11958024264806, -4.306969410444837], [-79.12101179485344, -4.308236116840689], [-79.12067610973617, -4.309067826307489], [-79.12074363176694, -4.31068522615785], [-79.11987376344302, -4.311659152677795], [-79.11991817982933, -4.312979842606417], [-79.11793594605017, -4.314257914236745], [-79.11670518772256, -4.3170388682965], [-79.11466006670157, -4.319110341491951], [-79.11320061712043, -4.319489484089217], [-79.11357009848734, -4.320418634037397], [-79.11304340993448, -4.321383829494984], [-79.11298124277297, -4.323393243715047], [-79.11335036758005, -4.324465934827634], [-79.11283673387149, -4.3259316392987275], [-79.11309373255266, -4.328975342974646], [-79.11111082278003, -4.3301572569013995], [-79.11075535662036, -4.332034090886559], [-79.11022444858168, -4.332771995868655], [-79.10942406175572, -4.333126201686302], [-79.10895498533283, -4.333979984135832], [-79.10949037053571, -4.3347079541062685], [-79.10968679877622, -4.335933810827372], [-79.1112620878069, -4.3384408528912335], [-79.11225245068559, -4.338641246046117], [-79.11347803369665, -4.340071997322555], [-79.11467857266268, -4.340322607827254], [-79.11570628383363, -4.341009734913839], [-79.11460116833987, -4.342701601732672], [-79.11373448027658, -4.343331012160019], [-79.11332153910466, -4.34550461852782], [-79.11204328966578, -4.3477478245106695], [-79.11191875875154, -4.34894607521815], [-79.1123252067192, -4.34938489322017], [-79.11150735872677, -4.350495279454749], [-79.1117036899112, -4.352046010055361], [-79.11105839882389, -4.352769268265759], [-79.11156365622642, -4.3537250811313575], [-79.11112096305253, -4.356350758567186], [-79.1099834543033, -4.356620624302765], [-79.10973774125799, -4.3576678498700465], [-79.1087913216129, -4.3587204876959005], [-79.10741856416784, -4.358709851851768], [-79.10788133130315, -4.359500488374299], [-79.1083484010765, -4.3631047309130775], [-79.10734513848031, -4.365190500806145], [-79.10843819748891, -4.365544933702039], [-79.10974291749294, -4.36703386690576], [-79.110119476316, -4.367989359101242], [-79.1110056415681, -4.368163843011077], [-79.11136204410035, -4.368602539374794], [-79.11093110514237, -4.369376570908447], [-79.11095025555717, -4.370295277449801], [-79.11011097382456, -4.371384065402885], [-79.11004489696359, -4.3720728923280285], [-79.11072881667751, -4.373065047018833], [-79.11026945257397, -4.373767234025836], [-79.1107544490111, -4.37424931930656], [-79.11051684278695, -4.374909005113213], [-79.11076504282322, -4.375727811126251], [-79.10935964996803, -4.3801596517728205], [-79.11045569873022, -4.382179165513508], [-79.11215380438217, -4.383626041643881], [-79.1121275980259, -4.384372860481308], [-79.11438999254133, -4.387782555781622], [-79.114316532758, -4.388562273456123], [-79.11534146577291, -4.390435677836838], [-79.11522567544547, -4.3915131311864535], [-79.11426270986854, -4.392911416509105], [-79.11351326208441, -4.393330571502292], [-79.11256701394208, -4.396184628188007], [-79.11197420446138, -4.396867334034782], [-79.11161526399182, -4.399325747365242], [-79.1119320024122, -4.400374395489088], [-79.11129457295691, -4.401736409572849], [-79.11092666047885, -4.404976627737926], [-79.11198831590973, -4.407968283719318], [-79.11550444765413, -4.4116097513264], [-79.1169129323155, -4.414508064691798], [-79.11717208780813, -4.415709680203094], [-79.11690266355531, -4.41668985719445], [-79.11787709351418, -4.41969233505807], [-79.1178427680504, -4.421960191568868], [-79.11852776904794, -4.42253609620025], [-79.1183716007952, -4.423971106772084], [-79.11888067872322, -4.425061034521105], [-79.11959801020464, -4.425354609989221], [-79.12003024683672, -4.426164323151798], [-79.12161266889575, -4.42597863138443], [-79.12246910925968, -4.426626741055451], [-79.12380066882352, -4.426361101660231], [-79.12494314759623, -4.427005150323886], [-79.12590236247965, -4.4265960975178915], [-79.12621106307294, -4.426998238104926], [-79.12787934406306, -4.42707901941346], [-79.1290745567283, -4.427608365011593], [-79.13025275759117, -4.427319478291279], [-79.13050466809324, -4.427616768384202], [-79.13137708011203, -4.427604620182825], [-79.13350472419752, -4.429379150240555], [-79.13408372922252, -4.429459561050167], [-79.13450944033477, -4.430788399768278], [-79.13620444946321, -4.430387172466409], [-79.1372709420976, -4.431401834962835], [-79.13970561721662, -4.431461800531134], [-79.14064399628823, -4.432239293686982], [-79.1417367173853, -4.432395873878954], [-79.14216630832303, -4.4337041500343135], [-79.14341586950313, -4.43443505566098], [-79.14317720622331, -4.435511026497959], [-79.14415203714968, -4.437444130238119], [-79.14396081223249, -4.4381360032427315], [-79.14584808202656, -4.440265186865796], [-79.14553047042482, -4.441455794467246], [-79.14586711364066, -4.442188710070911], [-79.14497656034168, -4.443727161865118], [-79.14491974523119, -4.445008290215911], [-79.14574743001816, -4.446167496900436], [-79.14660839086947, -4.446456750525904], [-79.14665504730081, -4.447816938553941], [-79.14757376686168, -4.448363818394887], [-79.14842031366493, -4.448222405505146], [-79.14953211753262, -4.449542510680138], [-79.15047451978805, -4.4491979851185], [-79.15213212872209, -4.45000360170237], [-79.15422187590197, -4.449575227092452], [-79.15561783556005, -4.450161875758208], [-79.15695206516139, -4.451561383105396], [-79.15854320475547, -4.451257228967762], [-79.15940734140044, -4.452213098860301], [-79.15967079122873, -4.453325156752427], [-79.16016156335402, -4.453736553561842], [-79.16092041062632, -4.457236144464703], [-79.16068352621632, -4.458556156802317], [-79.16006782306992, -4.459033094227069], [-79.1607387531853, -4.459544357545015], [-79.16109859172013, -4.461501047632104], [-79.16343473147408, -4.465292879695405], [-79.16348920364763, -4.467830161425653], [-79.16487712602402, -4.468832601491427], [-79.16552255535609, -4.470084749621606], [-79.16527764497785, -4.472458208314211], [-79.16577996780858, -4.474634165412475], [-79.16637126839022, -4.475539978097154], [-79.16744239198091, -4.476023709343976], [-79.16967507651009, -4.475573375002271], [-79.17054256086931, -4.474696333322347], [-79.1711911785415, -4.4726804318886515], [-79.17400002820096, -4.473326221701152], [-79.17426321929918, -4.473893881879957], [-79.17516315660815, -4.474348294009425], [-79.17541125405671, -4.475091402193158], [-79.17701442672785, -4.474718950946114], [-79.17908888060943, -4.47737970869354], [-79.18152428397892, -4.478677682024853], [-79.18608989104372, -4.477447355067699], [-79.1867806589107, -4.475726515462268], [-79.18924347992285, -4.47424738714973], [-79.19173920885746, -4.476830494524407], [-79.19353034817287, -4.477396564100499], [-79.19443739284924, -4.478479901486619], [-79.19502124785801, -4.4799308399094375], [-79.19594697734324, -4.48050981342773], [-79.19681973640665, -4.481672795668127], [-79.19824135396176, -4.482196907966279], [-79.19897820547716, -4.483651893344251], [-79.2005099751559, -4.484804048245812], [-79.2008955306619, -4.48554665916507], [-79.20043394999834, -4.485985364828248], [-79.2006965034853, -4.487614204478078], [-79.19959763761976, -4.489103417233826], [-79.19994003875696, -4.489880381909101], [-79.19857870453224, -4.4910827762192564], [-79.19814550477686, -4.492588985837136], [-79.198258957587, -4.494441021778962], [-79.19910683608083, -4.495728262936432], [-79.19953933068115, -4.498227050290077], [-79.20090415703423, -4.498883565360509], [-79.20304613608094, -4.498968305511899], [-79.20312365659899, -4.500783875144316], [-79.2052738067638, -4.504722383833873], [-79.20675774830163, -4.506197410141857], [-79.20811609490985, -4.506394551528225], [-79.208809748165, -4.509665959723967], [-79.20867916468593, -4.51042165530561], [-79.21015574973195, -4.5110138450417505], [-79.21224295572723, -4.509521306445021], [-79.21549756031757, -4.508323509432385], [-79.21659595836714, -4.5075893271008605], [-79.21747172400553, -4.50625647727808], [-79.22043238311709, -4.504368894794758], [-79.21977911325355, -4.502438958835522], [-79.22053917073661, -4.501627377388981], [-79.22060261700557, -4.5010246277288], [-79.21967434860774, -4.496827148537321], [-79.22264859062739, -4.493740341279472], [-79.22403310367032, -4.492973338932902], [-79.22740631672457, -4.491983887723493], [-79.22913582631156, -4.490503154450684], [-79.22959925721646, -4.491095224971289], [-79.23076280829122, -4.491007135597316], [-79.23183295683341, -4.490030576415285], [-79.23266675243788, -4.489847438146608], [-79.23421257706276, -4.490893005633511], [-79.23895944427392, -4.486846687982193], [-79.24055062970564, -4.4868720593197695], [-79.24197052412997, -4.4852504342538175], [-79.2457880412261, -4.484269823881908], [-79.24828820233846, -4.482602098223803], [-79.2500235286077, -4.482662483876295], [-79.25152244763254, -4.483895828809096], [-79.25403559366094, -4.483676946696255], [-79.25584608711118, -4.484212414465828], [-79.26091176127358, -4.488092742986189], [-79.26202249576596, -4.488335716359416], [-79.26327513187528, -4.488087706103706], [-79.26420042010326, -4.486733120176614], [-79.2658772769827, -4.48531594166638], [-79.2677864984184, -4.482406364346604], [-79.26823348534644, -4.480885768963806], [-79.26919309446839, -4.480342544195125], [-79.27114998023805, -4.475394613252316], [-79.2714255473333, -4.473773120510004]]]}}]}